EAGLEEYE                
1 60508U 24149AS  26131.78684935  .00049172  00000+0  49963-3 0  9998
2 60508  97.3719 223.2951 0001994  56.7431 303.4019 15.65048516 97232
FLOCK 4BE-29            
1 60509U 24149AT  26131.68067341  .00011153  00000+0  25544-3 0  9991
2 60509  97.3805 217.0404 0003881  84.4849 275.6841 15.42942731 96780
TRANSPORTER-11 OBJECT AU
1 60510U 24149AU  26131.79296494  .00009506  00000+0  24663-3 0  9998
2 60510  97.3726 215.2535 0004794  73.3579 286.8193 15.39198516 96717
FLOCK 4BE-2             
1 60511U 24149AV  26131.66451308  .00030757  00000+0  56875-3 0  9994
2 60511  97.3820 218.0335 0003681  84.0976 276.0694 15.48993862 96844
FLOCK 4BE-13            
1 60512U 24149AW  26131.47607721  .00009264  00000+0  22742-3 0  9991
2 60512  97.3716 215.5361 0004828  57.8671 302.3043 15.40896548 96716
FLOCK 4BE-27            
1 60513U 24149AX  26131.86316757  .00005496  00000+0  17047-3 0  9996
2 60513  97.3825 213.7157 0005349  81.7990 278.3859 15.33808534 96571
FLOCK 4BE-9             
1 60514U 24149AY  26131.77277770  .00011139  00000+0  28395-3 0  9997
2 60514  97.3789 215.7241 0004020  85.8735 274.2970 15.39697486 96717
FLOCK 4BE-6             
1 60516U 24149BA  26131.77397933  .00009918  00000+0  26246-3 0  9998
2 60516  97.3786 215.1493 0004776  82.1257 278.0530 15.38575677 96671
FLOCK 4BE-14            
1 60517U 24149BB  26131.78942483  .00010195  00000+0  25861-3 0  9997
2 60517  97.3693 215.2728 0005626  78.9907 281.1971 15.39863852 96727
FLOCK 4BE-1             
1 60518U 24149BC  26131.84216943  .00011844  00000+0  28550-3 0  9990
2 60518  97.3778 216.4758 0005140  78.5963 281.5861 15.41378602 96771
FLOCK 4BE-28            
1 60519U 24149BD  26131.78038470  .00012675  00000+0  28332-3 0  9992
2 60519  97.3744 217.0270 0005214  73.8685 286.3137 15.43629066 96822
IPERDRONE.0             
1 60520U 24149BE  26131.77421432  .00040195  00000+0  46361-3 0  9997
2 60520  97.3772 223.3373 0001690  46.1605 313.9792 15.61839038 97229
TRANSPORTER-11 OBJECT BF
1 60521U 24149BF  26131.78381448  .00096003  00000+0  71934-3 0  9994
2 60521  97.3770 225.3043 0000554 349.0894  11.0357 15.72351625 97346
CONNECTA IOT-2          
1 60522U 24149BG  26131.73476036  .00002723  00000+0  11645-3 0  9997
2 60522  97.3840 210.4414 0008172  94.2062 266.0109 15.23657488 96340
PTD-R (TYVAK-0127)      
1 60523U 24149BH  26131.81794777  .00148729  00000+0  55411-3 0  9998
2 60523  97.3765 229.3449 0001137 212.0432 148.0771 15.87618577 97632
CONNECTA IOT-4          
1 60524U 24149BJ  26131.46408180  .00011458  00000+0  28162-3 0  9991
2 60524  97.3794 215.4407 0006294  72.2396 287.9537 15.40792610 96675
ORESAT0.5               
1 60525U 24149BK  26131.76856072  .00012628  00000+0  28139-3 0  9996
2 60525  97.3716 217.2527 0006242  61.8508 298.3370 15.43717027 96858
DEIMOS                  
1 60526U 24149BL  26131.78145133  .00012351  00000+0  28266-3 0  9992
2 60526  97.3776 217.4225 0006390  67.3038 292.8884 15.42925628 96839
CUAVA-2                 
1 60527U 24149BM  26131.78874443  .00008038  00000+0  23683-3 0  9991
2 60527  97.3725 213.2712 0007907  70.4743 289.7354 15.35272967 96584
ERNST                   
1 60528U 24149BN  26131.49143757  .00008923  00000+0  23889-3 0  9998
2 60528  97.3803 214.9654 0007302  75.0874 285.1179 15.38234928 96639
TORO                    
1 60530U 24149BQ  26131.59455676  .00000793  00000+0  75228-4 0  9990
2 60530  97.6790 206.9479 0001587  95.1971 264.9432 14.96284745 94489
HYPSO-2                 
1 60531U 24149BR  26131.61286323  .00001591  00000+0  13752-3 0  9995
2 60531  97.6818 208.4090 0002125 113.2203 246.9244 14.98604247 94572
LEMU NGE                
1 60532U 24149BS  26131.63759284  .00001348  00000+0  12906-3 0  9999
2 60532  97.6847 207.3384 0002542 114.2748 245.8738 14.94800006 94491
LEMUR-2-STELLA          
1 60533U 24149BT  26131.66810772  .00006074  00000+0  36755-3 0  9992
2 60533  97.6731 213.9892 0001954 123.5762 236.5654 15.10998508 94988
SATELIOT_2              
1 60534U 24149BU  26131.64704465  .00000727  00000+0  69480-4 0  9993
2 60534  97.6834 207.2719 0001359 107.7464 252.3905 14.96225223 94502
NIGHTJAR                
1 60535U 24149BV  26131.67618140  .00001702  00000+0  14603-3 0  9991
2 60535  97.6834 208.8949 0001197 156.7980 203.3297 14.98798821137400
LEMUR-2-MARHISYAM       
1 60536U 24149BW  26131.76812535  .00006724  00000+0  41221-3 0  9991
2 60536  97.6875 214.4998 0001419 197.4282 162.6898 15.10489655 94983
SATELIOT_4              
1 60537U 24149BX  26131.66542272  .00001054  00000+0  97688-4 0  9999
2 60537  97.6737 206.8425 0002934 133.6992 226.4473 14.96530605 94516
PICO-02A021             
1 60538U 24149BY  26131.48494977  .00003060  00000+0  23246-3 0  9995
2 60538  97.6767 210.6440 0006590 131.9823 228.1965 15.02902826 94225
ICEYE-X43               
1 60539U 24149BZ  26131.79963161  .00001567  00000+0  13167-3 0  9997
2 60539  97.6770 209.2670 0004375 203.4964 156.6060 14.99742490 94662
